<?xml version="1.0" encoding="UTF-8" standalone="yes"?>
<ndm>
    <oem id="CCSDS_OEM_VERS" version="2.0">
        <header>
            <CREATION_DATE>2024-046T04:54:49.012Z</CREATION_DATE>
            <ORIGINATOR>JSC</ORIGINATOR>
        </header>
        <body>
            <segment>
                <metadata>
                    <OBJECT_NAME>ISS</OBJECT_NAME>
                    <OBJECT_ID>1998-067-A</OBJECT_ID>
                    <CENTER_NAME>EARTH</CENTER_NAME>
                    <REF_FRAME>EME2000</REF_FRAME>
                    <TIME_SYSTEM>UTC</TIME_SYSTEM>
                    <START_TIME>2024-045T12:00:00.000Z</START_TIME>
                    <STOP_TIME>2024-060T12:00:00.000Z</STOP_TIME>
                </metadata>
                <data>
                    <COMMENT>Units are in kg and m^2</COMMENT>
                    <COMMENT>MASS=452886.00</COMMENT>
                    <COMMENT>DRAG_AREA=1574.20</COMMENT>
                    <COMMENT>DRAG_COEFF=3.10</COMMENT>
                    <COMMENT>SOLAR_RAD_AREA=0.00</COMMENT>
                    <COMMENT>SOLAR_RAD_COEFF=0.00</COMMENT>
                    <COMMENT>Orbits start at the ascending node epoch </COMMENT>
                    <COMMENT>ISS first asc. node: EPOCH = 2024-02-14T13:27:06.489 $ ORBIT = 3937 $ LAN(DEG) = -137.83518</COMMENT>
                    <COMMENT>ISS last asc. node : EPOCH = 2024-02-29T10:54:10.526 $ ORBIT = 4168 $ LAN(DEG) = 171.93642</COMMENT>
                    <COMMENT>Begin sequence of events</COMMENT>
                    <COMMENT>TRAJECTORY EVENT SUMMARY:</COMMENT>
                    <COMMENT></COMMENT>
                    <COMMENT>|       EVENT        |       TIG        | ORB |   DV    |   HA    |   HP    |</COMMENT>
                    <COMMENT>|                    |       GMT        |     |   M/S   |   KM    |   KM    |</COMMENT>
                    <COMMENT>|                    |                  |     |  (F/S)  |  (NM)   |  (NM)   |</COMMENT>
                    <COMMENT>=============================================================================</COMMENT>
                    <COMMENT> 87P Launch            046:03:25:05.000             0.0     421.2     412.1</COMMENT>
                    <COMMENT>                                                   (0.0)   (227.5)   (222.5)</COMMENT>
                    <COMMENT></COMMENT>
                    <COMMENT> 87P Docking           048:06:12:06.000             0.0     420.7     411.8</COMMENT>
                    <COMMENT>                                                   (0.0)   (227.2)   (222.4)</COMMENT>
                    <COMMENT></COMMENT>
                    <COMMENT> Crew-8 Docking        054:10:00:00.000             0.0     420.3     410.5</COMMENT>
                    <COMMENT>                                                   (0.0)   (227.0)   (221.7)</COMMENT>
                    <COMMENT></COMMENT>
                    <COMMENT> GMT055 Reboost Preli  055:00:21:00.000             1.6     420.3     410.2</COMMENT>
                    <COMMENT>                                                   (5.2)   (226.9)   (221.5)</COMMENT>
                    <COMMENT></COMMENT>
                    <COMMENT> Crew-8 Launch         059:05:49:00.000             0.0     420.9     414.1</COMMENT>
                    <COMMENT>                                                   (0.0)   (227.3)   (223.6)</COMMENT>
                    <COMMENT></COMMENT>
                    <COMMENT>=============================================================================</COMMENT>
                    <COMMENT>End sequence of events</COMMENT>
                    <stateVector>
                        <EPOCH>2024-053T02:30:00.000Z</EPOCH>
                        <X units="km">-6730.0632728475903</X>
                        <Y units="km">827.12107182461705</Y>
                        <Z units="km">413.46658714016002</Z>
                        <X_DOT units="km/s">-0.21238756452374</X_DOT>
                        <Y_DOT units="km/s">-4.7702138807410401</Y_DOT>
                        <Z_DOT units="km/s">5.9947657672399997</Z_DOT>
                    </stateVector>
                    <stateVector>
                        <EPOCH>2024-053T02:34:00.000Z</EPOCH>
                        <X units="km">-6535.1090972715201</X>
                        <Y units="km">-333.93519859850397</Y>
                        <Z units="km">1819.52592743694</Z>
                        <X_DOT units="km/s">1.8271101737503801</X_DOT>
                        <Y_DOT units="km/s">-4.8460420192096496</Y_DOT>
                        <Z_DOT units="km/s">5.6504727530410497</Z_DOT>
                    </stateVector>
                    <stateVector>
                        <EPOCH>2024-053T02:38:00.000Z</EPOCH>
                        <X units="km">-5863.75164698771</X>
                        <Y units="km">-1470.6494192878599</Y>
                        <Z units="km">3092.5714874427299</Z>
                        <X_DOT units="km/s">3.7331929230285001</X_DOT>
                        <Y_DOT units="km/s">-4.5686294436615498</Y_DOT>
                        <Z_DOT units="km/s">4.8931826295664296</Z_DOT>
                    </stateVector>
                    <stateVector>
                        <EPOCH>2024-053T02:42:00.000Z</EPOCH>
                        <X units="km">-4765.0653790415199</X>
                        <Y units="km">-2500.1941476832699</Y>
                        <Z units="km">4139.6130937030002</Z>
                        <X_DOT units="km/s">5.3663627122822799</X_DOT>
                        <Y_DOT units="km/s">-3.9584969769801699</Y_DOT>
                        <Z_DOT units="km/s">3.7787612633686098</Z_DOT>
                    </stateVector>
                    <stateVector>
                        <EPOCH>2024-053T02:46:00.000Z</EPOCH>
                        <X units="km">-3319.3179343970701</X>
                        <Y units="km">-3347.6459775948301</Y>
                        <Z units="km">4884.30736931308</Z>
                        <X_DOT units="km/s">6.6077525288174002</X_DOT>
                        <Y_DOT units="km/s">-3.0605362141194901</Y_DOT>
                        <Z_DOT units="km/s">2.3891311594384699</Z_DOT>
                    </stateVector>
                    <stateVector>
                        <EPOCH>2024-053T02:50:00.000Z</EPOCH>
                        <X units="km">-1631.96538892019</X>
                        <Y units="km">-3951.4346249079299</Y>
                        <Z units="km">5272.4806535956404</Z>
                        <X_DOT units="km/s">7.3675642502015499</X_DOT>
                        <Y_DOT units="km/s">-1.94038882415112</Y_DOT>
                        <Z_DOT units="km/s">0.82595900876834005</Z_DOT>
                    </stateVector>
                    <stateVector>
                        <EPOCH>2024-053T02:54:00.000Z</EPOCH>
                        <X units="km">174.11432742701601</X>
                        <Y units="km">-4267.7415102600098</Y>
                        <Z units="km">5275.9760377019802</Z>
                        <X_DOT units="km/s">7.5911876785196002</X_DOT>
                        <Y_DOT units="km/s">-0.67943832100777002</Y_DOT>
                        <Z_DOT units="km/s">-0.79697029190391999</Z_DOT>
                    </stateVector>
                    <stateVector>
                        <EPOCH>2024-053T02:58:00.000Z</EPOCH>
                        <X units="km">1967.5213373141801</X>
                        <Y units="km">-4273.5984206171697</Y>
                        <Z units="km">4894.5930745462801</Z>
                        <X_DOT units="km/s">7.2625988194779998</X_DOT>
                        <Y_DOT units="km/s">0.63097416477257995</Y_DOT>
                        <Z_DOT units="km/s">-2.36181003358924</Z_DOT>
                    </stateVector>
                    <stateVector>
                        <EPOCH>2024-053T03:02:00.000Z</EPOCH>
                        <X units="km">3617.7731108536</X>
                        <Y units="km">-3968.5198756618502</Y>
                        <Z units="km">4156.0857336136596</Z>
                        <X_DOT units="km/s">6.4054305400528202</X_DOT>
                        <Y_DOT units="km/s">1.89591626976866</Y_DOT>
                        <Z_DOT units="km/s">-3.7548253105059399</Z_DOT>
                    </stateVector>
                    <stateVector>
                        <EPOCH>2024-053T03:06:00.000Z</EPOCH>
                        <X units="km">5004.6948856286699</X>
                        <Y units="km">-3374.57797329098</Y>
                        <Z units="km">3114.20695243096</Z>
                        <X_DOT units="km/s">5.0815055030309102</X_DOT>
                        <Y_DOT units="km/s">3.0234351694528598</Y_DOT>
                        <Z_DOT units="km/s">-4.8743718212184604</Z_DOT>
                    </stateVector>
                    <stateVector>
                        <EPOCH>2024-053T03:10:00.000Z</EPOCH>
                        <X units="km">6027.1746782333703</X>
                        <Y units="km">-2534.8986720764001</Y>
                        <Z units="km">1844.9050102680501</Z>
                        <X_DOT units="km/s">3.3869944882844898</X_DOT>
                        <Y_DOT units="km/s">3.93114555403004</Y_DOT>
                        <Z_DOT units="km/s">-5.6383208437033199</Z_DOT>
                    </stateVector>
                    
                </data>
            </segment>
        </body>
    </oem>
</ndm>
